{
"type": "FeatureCollection",
"name": "TaxiAreas",
"features": [
{ "type": "Feature", "properties": { "24": 18, "25": 7, "icao": "LFPO", "label": "B", "taxiout": false, "07": 10, "06": 14 }, "geometry": { "type": "Polygon", "coordinates": [ [ [ 2.375233, 48.728047 ], [ 2.377880240675855, 48.731499343225764 ], [ 2.37486717610805, 48.732066580725657 ], [ 2.372559428502727, 48.729103816445104 ], [ 2.375233, 48.728047 ] ] ] } },
{ "type": "Feature", "properties": { "24": 12, "25": 14, "icao": "LFPO", "label": "V / A / D", "taxiout": false, "07": 9, "06": 13 }, "geometry": { "type": "Polygon", "coordinates": [ [ [ 2.360831, 48.727139 ], [ 2.361463, 48.725472 ], [ 2.36924, 48.72692 ], [ 2.368547164904735, 48.728463085508473 ], [ 2.360831, 48.727139 ] ] ] } },
{ "type": "Feature", "properties": { "24": 12, "25": 14, "icao": "LFPO", "label": "V / A / D", "taxiout": false, "07": 9, "06": 13 }, "geometry": { "type": "Polygon", "coordinates": [ [ [ 2.360831, 48.727139 ], [ 2.359634, 48.727158 ], [ 2.357026214476959, 48.725631732430564 ], [ 2.361463, 48.725472 ], [ 2.360831, 48.727139 ] ] ] } },
{ "type": "Feature", "properties": { "24": 8, "25": 16, "icao": "LFPO", "label": "U / T / S / R", "taxiout": false, "07": 9, "06": 12 }, "geometry": { "type": "Polygon", "coordinates": [ [ [ 2.359634, 48.727158 ], [ 2.359110457036055, 48.72977106578049 ], [ 2.355696011433677, 48.730084282215998 ], [ 2.357026214476959, 48.725631732430564 ], [ 2.359634, 48.727158 ] ] ] } },
{ "type": "Feature", "properties": { "24": 5, "25": 18, "icao": "LFPO", "label": "P", "taxiout": false, "07": 9, "06": 13 }, "geometry": { "type": "Polygon", "coordinates": [ [ [ 2.359110457036055, 48.72977106578049 ], [ 2.362532636377056, 48.731520767780012 ], [ 2.362156776679944, 48.732861314588192 ], [ 2.355696011433677, 48.730084282215998 ], [ 2.359110457036055, 48.72977106578049 ] ] ] } },
{ "type": "Feature", "properties": { "24": 18, "25": 7, "icao": "LFPO", "label": "C", "taxiout": false, "07": 10, "06": 14 }, "geometry": { "type": "Polygon", "coordinates": [ [ [ 2.375233, 48.728047 ], [ 2.372559428502727, 48.729103816445104 ], [ 2.368547164904735, 48.728463085508473 ], [ 2.36924, 48.72692 ], [ 2.375233, 48.728047 ] ] ] } },
{ "type": "Feature", "properties": { "24": 22, "25": 8, "icao": "LFPO", "label": "G", "taxiout": false, "07": 18, "06": 23 }, "geometry": { "type": "Polygon", "coordinates": [ [ [ 2.380734, 48.735616 ], [ 2.378879439706041, 48.735927910547815 ], [ 2.37711614729983, 48.732135954656954 ], [ 2.37892816225937, 48.731972211621333 ], [ 2.380734, 48.735616 ] ] ] } },
{ "type": "Feature", "properties": { "24": 10, "25": 10, "icao": "LFPO", "label": "E", "taxiout": false, "07": 6, "06": 10 }, "geometry": { "type": "Polygon", "coordinates": [ [ [ 2.357946529373122, 48.72304179753889 ], [ 2.358190142139771, 48.72233466320926 ], [ 2.368046, 48.724212 ], [ 2.368636489585839, 48.724937388894901 ], [ 2.357946529373122, 48.72304179753889 ] ] ] } },
{ "type": "Feature", "properties": { "24": 10, "25": 10, "icao": "LFPO", "label": "F", "taxiout": false, "07": 7, "06": 12 }, "geometry": { "type": "Polygon", "coordinates": [ [ [ 2.370733106126733, 48.725429705469296 ], [ 2.370927996340051, 48.724963407818926 ], [ 2.375234915379609, 48.725759784452968 ], [ 2.375058586138988, 48.726225054395236 ], [ 2.370733106126733, 48.725429705469296 ] ] ] } },
{ "type": "Feature", "properties": { "24": 13, "25": 14, "icao": "LFPO", "label": "Q / N", "taxiout": false, "07": 6, "06": 8 }, "geometry": { "type": "Polygon", "coordinates": [ [ [ 2.34992, 48.723812 ], [ 2.353017289074942, 48.724371262721519 ], [ 2.351921901671131, 48.726947099895945 ], [ 2.348958, 48.726066 ], [ 2.34992, 48.723812 ] ] ] } },
{ "type": "Feature", "properties": { "24": 10, "25": 16, "icao": "LFPO", "label": "M", "taxiout": true, "07": 9, "06": 12 }, "geometry": { "type": "Polygon", "coordinates": [ [ [ 2.355332453214673, 48.724822902280408 ], [ 2.354069219514173, 48.727809592759819 ], [ 2.353348776446549, 48.727678847756074 ], [ 2.354615, 48.724676 ], [ 2.355332453214673, 48.724822902280408 ] ] ] } }
]
}
