{
"type": "FeatureCollection",
"name": "TaxiAreas",
"features": [
{ "type": "Feature", "properties": { "icao": "LFMN", "label": "2A to 10A", "taxiout": false, "04R": 11, "04L": 6, "22L": 9, "22R": 4 }, "geometry": { "type": "Polygon", "coordinates": [ [ [ 7.218017, 43.666401 ], [ 7.216919, 43.666859 ], [ 7.214154047447619, 43.664787887330164 ], [ 7.214466, 43.663781 ], [ 7.218017, 43.666401 ] ] ] } },
{ "type": "Feature", "properties": { "icao": "LFMN", "label": "10C to 40A", "taxiout": false, "04R": 12, "04L": 7, "22L": 12, "22R": 7 }, "geometry": { "type": "Polygon", "coordinates": [ [ [ 7.214155, 43.664788 ], [ 7.204999, 43.663705 ], [ 7.205282841591059, 43.66221083972944 ], [ 7.214466, 43.663781 ], [ 7.214155, 43.664788 ] ] ] } },
{ "type": "Feature", "properties": { "icao": "LFMN", "label": "40C to 62", "taxiout": false, "04R": 11, "04L": 6, "22L": 13, "22R": 6 }, "geometry": { "type": "Polygon", "coordinates": [ [ [ 7.207113332874354, 43.662536490070323 ], [ 7.201384714942216, 43.661517344459504 ], [ 7.202291939075995, 43.655253026715094 ], [ 7.207844, 43.659304 ], [ 7.207113332874354, 43.662536490070323 ] ] ] } },
{ "type": "Feature", "properties": { "icao": "LFMN", "label": "19A  to 47A", "taxiout": false, "04R": 9, "04L": 4, "22L": 11, "22R": 6 }, "geometry": { "type": "Polygon", "coordinates": [ [ [ 7.209690364250371, 43.662964454523774 ], [ 7.208029440903566, 43.662680464716459 ], [ 7.208587, 43.660553 ], [ 7.21011, 43.660761 ], [ 7.209690364250371, 43.662964454523774 ] ] ] } },
{ "type": "Feature", "properties": { "icao": "LFMN", "label": "49A  to 49C", "taxiout": true, "04R": 8, "04L": 3, "22L": 12, "22R": 7 }, "geometry": { "type": "Polygon", "coordinates": [ [ [ 7.210599, 43.659129 ], [ 7.209951, 43.659902 ], [ 7.208862, 43.659082 ], [ 7.209482, 43.658423 ], [ 7.210599, 43.659129 ] ] ] } },
{ "type": "Feature", "properties": { "icao": "LFMN", "label": "61A  to 69C", "taxiout": true, "04R": 10, "04L": 5, "22L": 10, "22R": 5 }, "geometry": { "type": "Polygon", "coordinates": [ [ [ 7.215809, 43.662951 ], [ 7.214906, 43.663484 ], [ 7.210803, 43.660495 ], [ 7.211626, 43.659985 ], [ 7.215809, 43.662951 ] ] ] } },
{ "type": "Feature", "properties": { "icao": "LFMN", "label": "K West of H1", "taxiout": false, "04R": 13, "04L": 7, "22L": 3, "22R": 1 }, "geometry": { "type": "Polygon", "coordinates": [ [ [ 7.228670040145778, 43.672185339233849 ], [ 7.227524333686009, 43.673143507050668 ], [ 7.21902104355493, 43.667031687766382 ], [ 7.220041438370659, 43.666202918591573 ], [ 7.228670040145778, 43.672185339233849 ] ] ] } },
{ "type": "Feature", "properties": { "icao": "LFMN", "label": "31 to 39C", "taxiout": true, "04R": 8, "04L": 4, "22L": 9, "22R": 4 }, "geometry": { "type": "Polygon", "coordinates": [ [ [ 7.219421, 43.665671 ], [ 7.218786196896647, 43.666082660250318 ], [ 7.215858983304587, 43.663968946039013 ], [ 7.216482, 43.663486 ], [ 7.219421, 43.665671 ] ] ] } },
{ "type": "Feature", "properties": { "icao": "LFMN", "label": "5A to 15", "taxiout": false, "04R": 12, "04L": 7, "22L": 12, "22R": 7 }, "geometry": { "type": "Polygon", "coordinates": [ [ [ 7.210352, 43.662855 ], [ 7.210863, 43.661364 ], [ 7.212053, 43.662108 ], [ 7.213126, 43.662991 ], [ 7.210352, 43.662855 ] ] ] } },
{ "type": "Feature", "properties": { "icao": "LFMN", "label": "51A to 77", "taxiout": true, "04R": 6, "04L": 1, "22L": 13, "22R": 7 }, "geometry": { "type": "Polygon", "coordinates": [ [ [ 7.207886, 43.658286 ], [ 7.202859, 43.654623 ], [ 7.203698, 43.654108 ], [ 7.208368, 43.657532 ], [ 7.207886, 43.658286 ] ] ] } }
]
}
