{
  "type": "FeatureCollection",
  "features": [
    {
      "type": "Feature",
      "geometry": {
        "type": "Polygon",
        "coordinates": [
          [
            [
              2.539073,
              49.017444
            ],
            [
              2.541015,
              49.015917
            ],
            [
              2.542616,
              49.0159
            ],
            [
              2.542979,
              49.017482
            ],
            [
              2.539073,
              49.017444
            ]
          ]
        ]
      },
      "properties": {
        "icao": "LFPG",
        "label": "X",
        "taxiout": false,
        "26R": 20,
        "27L": 10,
        "08L": 14,
        "09R": 9
      }
    },
    {
      "type": "Feature",
      "geometry": {
        "type": "Polygon",
        "coordinates": [
          [
            [
              2.539073,
              49.017444
            ],
            [
              2.536775,
              49.015635
            ],
            [
              2.540495,
              49.015117
            ],
            [
              2.541015,
              49.015917
            ],
            [
              2.539073,
              49.017444
            ]
          ]
        ]
      },
      "properties": {
        "icao": "LFPG",
        "label": "X",
        "taxiout": false,
        "26R": 20,
        "27L": 10,
        "08L": 14,
        "09R": 9
      }
    },
    {
      "type": "Feature",
      "geometry": {
        "type": "Polygon",
        "coordinates": [
          [
            [
              2.540441,
              49.013893
            ],
            [
              2.540462,
              49.015128
            ],
            [
              2.536896,
              49.015529
            ],
            [
              2.536896,
              49.013721
            ],
            [
              2.540441,
              49.013893
            ]
          ]
        ]
      },
      "properties": {
        "icao": "LFPG",
        "label": "Y",
        "taxiout": false,
        "26R": 19,
        "27L": 13,
        "08L": 16,
        "09R": 10
      }
    },
    {
      "type": "Feature",
      "geometry": {
        "type": "Polygon",
        "coordinates": [
          [
            [
              2.565188,
              48.999902
            ],
            [
              2.564978,
              49.003011
            ],
            [
              2.557301,
              49.002895
            ],
            [
              2.557414,
              48.99965
            ],
            [
              2.565188,
              48.999902
            ]
          ]
        ]
      },
      "properties": {
        "icao": "LFPG",
        "label": "A",
        "taxiout": false,
        "26R": 15,
        "27L": 17,
        "08L": 10,
        "09R": 17
      }
    },
    {
      "type": "Feature",
      "geometry": {
        "type": "Polygon",
        "coordinates": [
          [
            [
              2.564434,
              49.004786
            ],
            [
              2.564078,
              49.007166
            ],
            [
              2.559299,
              49.006943
            ],
            [
              2.558984,
              49.004402
            ],
            [
              2.564434,
              49.004786
            ]
          ]
        ]
      },
      "properties": {
        "icao": "LFPG",
        "label": "B",
        "taxiout": false,
        "26R": 16,
        "27L": 16,
        "08L": 11,
        "09R": 14
      }
    },
    {
      "type": "Feature",
      "geometry": {
        "type": "Polygon",
        "coordinates": [
          [
            [
              2.56527,
              48.999913
            ],
            [
              2.570634,
              49.00005
            ],
            [
              2.570425,
              49.00318
            ],
            [
              2.564997,
              49.003011
            ],
            [
              2.56527,
              48.999913
            ]
          ]
        ]
      },
      "properties": {
        "icao": "LFPG",
        "label": "C",
        "taxiout": false,
        "26R": 15,
        "27L": 17,
        "08L": 12,
        "09R": 17
      }
    },
    {
      "type": "Feature",
      "geometry": {
        "type": "Polygon",
        "coordinates": [
          [
            [
              2.564589,
              49.004987
            ],
            [
              2.569867,
              49.005072
            ],
            [
              2.569519,
              49.007366
            ],
            [
              2.564941,
              49.007258
            ],
            [
              2.564589,
              49.004987
            ]
          ]
        ]
      },
      "properties": {
        "icao": "LFPG",
        "label": "D",
        "taxiout": false,
        "26R": 17,
        "27L": 17,
        "08L": 11,
        "09R": 14
      }
    },
    {
      "type": "Feature",
      "geometry": {
        "type": "Polygon",
        "coordinates": [
          [
            [
              2.584435,
              49.003916
            ],
            [
              2.572232,
              49.003189
            ],
            [
              2.57258,
              49.000158
            ],
            [
              2.584819,
              49.000737
            ],
            [
              2.584435,
              49.003916
            ]
          ]
        ]
      },
      "properties": {
        "icao": "LFPG",
        "label": "E",
        "taxiout": false,
        "26R": 12,
        "27L": 18,
        "08L": 14,
        "09R": 21
      }
    },
    {
      "type": "Feature",
      "geometry": {
        "type": "Polygon",
        "coordinates": [
          [
            [
              2.583916,
              49.007851
            ],
            [
              2.572674,
              49.007288
            ],
            [
              2.573041,
              49.0052
            ],
            [
              2.584213,
              49.005554
            ],
            [
              2.583916,
              49.007851
            ]
          ]
        ]
      },
      "properties": {
        "icao": "LFPG",
        "label": "F",
        "taxiout": false,
        "26R": 11,
        "27L": 12,
        "08L": 14,
        "09R": 15
      }
    },
    {
      "type": "Feature",
      "geometry": {
        "type": "Polygon",
        "coordinates": [
          [
            [
              2.55541,
              49.004888
            ],
            [
              2.556092,
              49.003191
            ],
            [
              2.557317,
              49.003242
            ],
            [
              2.557357,
              49.00509
            ],
            [
              2.55541,
              49.004888
            ]
          ]
        ]
      },
      "properties": {
        "icao": "LFPG",
        "label": "G",
        "taxiout": false,
        "26R": 13,
        "27L": 15,
        "08L": 10,
        "09R": 15
      }
    },
    {
      "type": "Feature",
      "geometry": {
        "type": "Polygon",
        "coordinates": [
          [
            [
              2.579151,
              49.01633
            ],
            [
              2.57308,
              49.01602
            ],
            [
              2.573477,
              49.013112
            ],
            [
              2.579508,
              49.013434
            ],
            [
              2.579151,
              49.01633
            ]
          ]
        ]
      },
      "properties": {
        "icao": "LFPG",
        "label": "H",
        "taxiout": false,
        "26R": 15,
        "27L": 12,
        "08L": 17,
        "09R": 16
      }
    },
    {
      "type": "Feature",
      "geometry": {
        "type": "Polygon",
        "coordinates": [
          [
            [
              2.512558,
              49.009223
            ],
            [
              2.511456,
              49.017664
            ],
            [
              2.493641,
              49.016908
            ],
            [
              2.494401,
              49.008724
            ],
            [
              2.512558,
              49.009223
            ]
          ]
        ]
      },
      "properties": {
        "icao": "LFPG",
        "label": "I",
        "taxiout": false,
        "26R": 23,
        "27L": 17,
        "08L": 18,
        "09R": 11
      }
    },
    {
      "type": "Feature",
      "geometry": {
        "type": "Polygon",
        "coordinates": [
          [
            [
              2.597152,
              49.002844
            ],
            [
              2.604783,
              49.003225
            ],
            [
              2.604604,
              49.00542
            ],
            [
              2.596688,
              49.004963
            ],
            [
              2.597152,
              49.002844
            ]
          ]
        ]
      },
      "properties": {
        "icao": "LFPG",
        "label": "J",
        "taxiout": false,
        "26R": 11,
        "27L": 16,
        "08L": 14,
        "09R": 21
      }
    },
    {
      "type": "Feature",
      "geometry": {
        "type": "Polygon",
        "coordinates": [
          [
            [
              2.585617,
              49.000785
            ],
            [
              2.590832,
              49.001045
            ],
            [
              2.58994,
              49.008089
            ],
            [
              2.584764,
              49.007843
            ],
            [
              2.585617,
              49.000785
            ]
          ]
        ]
      },
      "properties": {
        "icao": "LFPG",
        "label": "K",
        "taxiout": false,
        "26R": 12,
        "27L": 17,
        "08L": 16,
        "09R": 21
      }
    },
    {
      "type": "Feature",
      "geometry": {
        "type": "Polygon",
        "coordinates": [
          [
            [
              2.590606,
              49.00813
            ],
            [
              2.591498,
              49.001086
            ],
            [
              2.592887,
              49.001184
            ],
            [
              2.592076,
              49.008205
            ],
            [
              2.590606,
              49.00813
            ]
          ]
        ]
      },
      "properties": {
        "icao": "LFPG",
        "label": "L",
        "taxiout": false,
        "26R": 12,
        "27L": 17,
        "08L": 18,
        "09R": 22
      }
    },
    {
      "type": "Feature",
      "geometry": {
        "type": "Polygon",
        "coordinates": [
          [
            [
              2.53365,
              48.999973
            ],
            [
              2.533762,
              48.999161
            ],
            [
              2.546526,
              48.999816
            ],
            [
              2.546431,
              49.000618
            ],
            [
              2.53365,
              48.999973
            ]
          ]
        ]
      },
      "properties": {
        "icao": "LFPG",
        "label": "M",
        "taxiout": false,
        "26R": 16,
        "27L": 17,
        "08L": 10,
        "09R": 20
      }
    },
    {
      "type": "Feature",
      "geometry": {
        "type": "Polygon",
        "coordinates": [
          [
            [
              2.531034,
              48.99695
            ],
            [
              2.531926,
              48.989894
            ],
            [
              2.533241,
              48.989949
            ],
            [
              2.532325,
              48.997044
            ],
            [
              2.531034,
              48.99695
            ]
          ]
        ]
      },
      "properties": {
        "icao": "LFPG",
        "label": "N",
        "taxiout": false,
        "26R": 17,
        "27L": 19,
        "08L": 12,
        "09R": 20
      }
    },
    {
      "type": "Feature",
      "geometry": {
        "type": "Polygon",
        "coordinates": [
          [
            [
              2.535401,
              48.990416
            ],
            [
              2.538712,
              48.990608
            ],
            [
              2.538381,
              48.993359
            ],
            [
              2.535026,
              48.99323
            ],
            [
              2.535401,
              48.990416
            ]
          ]
        ]
      },
      "properties": {
        "icao": "LFPG",
        "label": "P",
        "taxiout": false,
        "26R": 17,
        "27L": 22,
        "08L": 12,
        "09R": 21
      }
    },
    {
      "type": "Feature",
      "geometry": {
        "type": "Polygon",
        "coordinates": [
          [
            [
              2.552404,
              49.011379
            ],
            [
              2.557283,
              49.01165
            ],
            [
              2.557024,
              49.013787
            ],
            [
              2.553083,
              49.013578
            ],
            [
              2.552404,
              49.011379
            ]
          ]
        ]
      },
      "properties": {
        "icao": "LFPG",
        "label": "Q",
        "taxiout": false,
        "26R": 17,
        "27L": 11,
        "08L": 12,
        "09R": 13
      }
    },
    {
      "type": "Feature",
      "geometry": {
        "type": "Polygon",
        "coordinates": [
          [
            [
              2.549819,
              49.012887
            ],
            [
              2.551791,
              49.013041
            ],
            [
              2.551157,
              49.017893
            ],
            [
              2.549091,
              49.017769
            ],
            [
              2.549819,
              49.012887
            ]
          ]
        ]
      },
      "properties": {
        "icao": "LFPG",
        "label": "R",
        "taxiout": true,
        "26R": 18,
        "27L": 10,
        "08L": 6,
        "09R": 9
      }
    },
    {
      "type": "Feature",
      "geometry": {
        "type": "Polygon",
        "coordinates": [
          [
            [
              2.535403,
              49.0122
            ],
            [
              2.535537,
              49.010505
            ],
            [
              2.547821,
              49.011071
            ],
            [
              2.547751,
              49.012595
            ],
            [
              2.535403,
              49.0122
            ]
          ]
        ]
      },
      "properties": {
        "icao": "LFPG",
        "label": "S",
        "taxiout": false,
        "26R": 19,
        "27L": 13,
        "08L": 9,
        "09R": 9
      }
    },
    {
      "type": "Feature",
      "geometry": {
        "type": "Polygon",
        "coordinates": [
          [
            [
              2.547127,
              49.012676
            ],
            [
              2.546013,
              49.01745
            ],
            [
              2.543003,
              49.017466
            ],
            [
              2.542933,
              49.012518
            ],
            [
              2.547127,
              49.012676
            ]
          ]
        ]
      },
      "properties": {
        "icao": "LFPG",
        "label": "X",
        "taxiout": false,
        "26R": 20,
        "27L": 10,
        "08L": 14,
        "09R": 9
      }
    },
    {
      "type": "Feature",
      "geometry": {
        "type": "Polygon",
        "coordinates": [
          [
            [
              2.540556,
              49.012387
            ],
            [
              2.540425,
              49.013882
            ],
            [
              2.537093,
              49.013732
            ],
            [
              2.537191,
              49.012267
            ],
            [
              2.540556,
              49.012387
            ]
          ]
        ]
      },
      "properties": {
        "icao": "LFPG",
        "label": "Y",
        "taxiout": false,
        "26R": 19,
        "27L": 13,
        "08L": 16,
        "09R": 10
      }
    }
  ]
}
