{
"type": "FeatureCollection",
"name": "TaxiAreas",
"features": [
{ "type": "Feature", "properties": { "icao": "LFBO", "label": "E / F", "taxiout": false, "14L": 9, "14R": 11, "32L": 10, "32R": 10 }, "geometry": { "type": "Polygon", "coordinates": [ [ [ 1.377075, 43.626939 ], [ 1.378093, 43.6276 ], [ 1.375921, 43.62937 ], [ 1.374967194167163, 43.62888383766164 ], [ 1.377075, 43.626939 ] ] ] } },
{ "type": "Feature", "properties": { "icao": "LFBO", "label": "E / F", "taxiout": false, "14L": 9, "14R": 11, "32L": 10, "32R": 10 }, "geometry": { "type": "Polygon", "coordinates": [ [ [ 1.371447, 43.630624 ], [ 1.373809, 43.628302 ], [ 1.375713937309572, 43.629264458851516 ], [ 1.37346, 43.631595 ], [ 1.371447, 43.630624 ] ] ] } },
{ "type": "Feature", "properties": { "icao": "LFBO", "label": "V / U", "taxiout": false, "14L": 7, "14R": 9, "32L": 12, "32R": 12 }, "geometry": { "type": "Polygon", "coordinates": [ [ [ 1.372415, 43.631095 ], [ 1.369712014869472, 43.634002936456376 ], [ 1.367575, 43.632877 ], [ 1.370402070934875, 43.630113379126072 ], [ 1.372415, 43.631095 ] ] ] } },
{ "type": "Feature", "properties": { "icao": "LFBO", "label": "E / F taxi out", "taxiout": true, "14L": 9, "14R": 11, "32L": 10, "32R": 10 }, "geometry": { "type": "Polygon", "coordinates": [ [ [ 1.377075, 43.626939 ], [ 1.374967194167163, 43.62888383766164 ], [ 1.373809, 43.628302 ], [ 1.375726, 43.626499 ], [ 1.377075, 43.626939 ] ] ] } },
{ "type": "Feature", "properties": { "icao": "LFBO", "label": "A / B / D", "taxiout": false, "14L": 12, "14R": 14, "32L": 6, "32R": 6 }, "geometry": { "type": "Polygon", "coordinates": [ [ [ 1.377819, 43.621708 ], [ 1.379721909407857, 43.622773787032422 ], [ 1.375831, 43.626447 ], [ 1.373817, 43.625548 ], [ 1.377819, 43.621708 ] ] ] } },
{ "type": "Feature", "properties": { "icao": "LFBO", "label": "C / G", "taxiout": true, "14L": 7, "14R": 9, "32L": 2, "32R": 2 }, "geometry": { "type": "Polygon", "coordinates": [ [ [ 1.377819, 43.621708 ], [ 1.382273, 43.619509 ], [ 1.383825, 43.621589 ], [ 1.380274, 43.623083 ], [ 1.377819, 43.621708 ] ] ] } },
{ "type": "Feature", "properties": { "icao": "LFBO", "label": "LAGARDERE", "taxiout": false, "14L": 6, "14R": 6, "32L": 14, "32R": 14 }, "geometry": { "type": "Polygon", "coordinates": [ [ [ 1.365085, 43.646115 ], [ 1.363551, 43.659404 ], [ 1.346283, 43.658873 ], [ 1.3476, 43.645268 ], [ 1.365085, 43.646115 ] ] ] } },
{ "type": "Feature", "properties": { "icao": "LFBO", "label": "ZIEGLER", "taxiout": false, "14L": 7, "14R": 7, "32L": 12, "32R": 15 }, "geometry": { "type": "Polygon", "coordinates": [ [ [ 1.354624, 43.630355 ], [ 1.349154, 43.635563 ], [ 1.347087, 43.634471 ], [ 1.352648, 43.629325 ], [ 1.354624, 43.630355 ] ] ] } },
{ "type": "Feature", "properties": { "icao": "LFBO", "label": "ADER", "taxiout": false, "14L": 10, "14R": 11, "32L": 7, "32R": 10 }, "geometry": { "type": "Polygon", "coordinates": [ [ [ 1.34731, 43.627199 ], [ 1.348086, 43.620738 ], [ 1.363124, 43.622301 ], [ 1.361986, 43.627559 ], [ 1.34731, 43.627199 ] ] ] } },
{ "type": "Feature", "properties": { "icao": "LFBO", "label": "MORVAN Est", "taxiout": false, "14L": 12, "14R": 11, "32L": 6, "32R": 9 }, "geometry": { "type": "Polygon", "coordinates": [ [ [ 1.364238, 43.621157 ], [ 1.363706537663474, 43.614706353044404 ], [ 1.365232620507984, 43.614659208008341 ], [ 1.365383, 43.621229 ], [ 1.364238, 43.621157 ] ] ] } },
{ "type": "Feature", "properties": { "icao": "LFBO", "label": "MORVAN Ouest / LANDES", "taxiout": false, "14L": 12, "14R": 11, "32L": 6, "32R": 9 }, "geometry": { "type": "Polygon", "coordinates": [ [ [ 1.358317, 43.61486 ], [ 1.363706537663474, 43.614706353044404 ], [ 1.364238, 43.621157 ], [ 1.359121, 43.621375 ], [ 1.358317, 43.61486 ] ] ] } },
{ "type": "Feature", "properties": { "icao": "LFBO", "label": "PYRENEES", "taxiout": false, "14L": 12, "14R": 11, "32L": 5, "32R": 8 }, "geometry": { "type": "Polygon", "coordinates": [ [ [ 1.360261, 43.614814 ], [ 1.360189, 43.613228 ], [ 1.364509, 43.61315 ], [ 1.36439, 43.614685 ], [ 1.360261, 43.614814 ] ] ] } }
]
}
