{
"type": "FeatureCollection",
"name": "TaxiAreas",
"features": [
{ "type": "Feature", "properties": { "icao": "LFML", "label": "Cargo", "taxiout": false, "13L": 7, "31R": 10 }, "geometry": { "type": "Polygon", "coordinates": [ [ [ 5.217624, 43.447196 ], [ 5.213809, 43.445608 ], [ 5.215597, 43.443403 ], [ 5.219311, 43.445489 ], [ 5.217624, 43.447196 ] ] ] } },
{ "type": "Feature", "properties": { "icao": "LFML", "label": "G/A", "taxiout": false, "13L": 6, "31R": 9 }, "geometry": { "type": "Polygon", "coordinates": [ [ [ 5.211753, 43.442171 ], [ 5.215490944615596, 43.443533792019977 ], [ 5.214583055694732, 43.444653427758844 ], [ 5.210714, 43.44313 ], [ 5.211753, 43.442171 ] ] ] } },
{ "type": "Feature", "properties": { "icao": "LFML", "label": "50 - 57", "taxiout": true, "13L": 6, "31R": 7 }, "geometry": { "type": "Polygon", "coordinates": [ [ [ 5.212177, 43.441872 ], [ 5.213386, 43.44103 ], [ 5.216094248145395, 43.442802753433341 ], [ 5.2154, 43.443276 ], [ 5.212177, 43.441872 ] ] ] } },
{ "type": "Feature", "properties": { "icao": "LFML", "label": "Terminal 2", "taxiout": true, "13L": 6, "31R": 7 }, "geometry": { "type": "Polygon", "coordinates": [ [ [ 5.21981, 43.442977 ], [ 5.21805, 43.44409 ], [ 5.214716000389146, 43.441895594958858 ], [ 5.216577, 43.440627 ], [ 5.21981, 43.442977 ] ] ] } },
{ "type": "Feature", "properties": { "icao": "LFML", "label": "7 - 10", "taxiout": false, "13L": 9, "31R": 10 }, "geometry": { "type": "Polygon", "coordinates": [ [ [ 5.222387850622375, 43.440091935491949 ], [ 5.219545, 43.442177 ], [ 5.218654, 43.441601 ], [ 5.221407841033407, 43.439676197631435 ], [ 5.222387850622375, 43.440091935491949 ] ] ] } },
{ "type": "Feature", "properties": { "icao": "LFML", "label": "1 - 6", "taxiout": false, "13L": 10, "31R": 9 }, "geometry": { "type": "Polygon", "coordinates": [ [ [ 5.221407841033407, 43.439676197631435 ], [ 5.22334, 43.437314 ], [ 5.226298, 43.438179 ], [ 5.224453, 43.440968 ], [ 5.221407841033407, 43.439676197631435 ] ] ] } },
{ "type": "Feature", "properties": { "icao": "LFML", "label": "25 - 45", "taxiout": true, "13L": 8, "31R": 7 }, "geometry": { "type": "Polygon", "coordinates": [ [ [ 5.22124, 43.437262 ], [ 5.222411, 43.438204 ], [ 5.218501, 43.441028 ], [ 5.217466, 43.440305 ], [ 5.22124, 43.437262 ] ] ] } },
{ "type": "Feature", "properties": { "icao": "LFML", "label": "Sécurité Civile", "taxiout": true, "13L": 8, "31R": 5 }, "geometry": { "type": "Polygon", "coordinates": [ [ [ 5.221551, 43.436673 ], [ 5.225127, 43.432093 ], [ 5.227431, 43.433033 ], [ 5.22334, 43.437314 ], [ 5.221551, 43.436673 ] ] ] } }
]
}
