{
"type": "FeatureCollection",
"name": "TaxiAreas",
"features": [
{ "type": "Feature", "properties": { "icao": "LFLL", "label": "A32 - A36", "taxiout": false, "35L": 9, "17R": 11 }, "geometry": { "type": "Polygon", "coordinates": [ [ [ 5.078163, 45.724419 ], [ 5.080727, 45.723888 ], [ 5.081044, 45.724784 ], [ 5.078412, 45.725201 ], [ 5.078163, 45.724419 ] ] ] } },
{ "type": "Feature", "properties": { "icao": "LFLL", "label": "A32 - A36", "taxiout": false, "35L": 9, "17R": 11 }, "geometry": { "type": "Polygon", "coordinates": [ [ [ 5.078163, 45.724419 ], [ 5.078057, 45.723978 ], [ 5.080598807055674, 45.72334112964635 ], [ 5.080727, 45.723888 ], [ 5.078163, 45.724419 ] ] ] } },
{ "type": "Feature", "properties": { "icao": "LFLL", "label": "G / N", "taxiout": true, "35L": 11, "17R": 6 }, "geometry": { "type": "Polygon", "coordinates": [ [ [ 5.080451, 45.730341 ], [ 5.080958, 45.726409 ], [ 5.083588, 45.726479 ], [ 5.08308, 45.730524 ], [ 5.080451, 45.730341 ] ] ] } },
{ "type": "Feature", "properties": { "icao": "LFLL", "label": "A32 - A36", "taxiout": false, "35L": 9, "17R": 11 }, "geometry": { "type": "Polygon", "coordinates": [ [ [ 5.083427, 45.72418 ], [ 5.083383, 45.724756 ], [ 5.081044, 45.724784 ], [ 5.080727, 45.723888 ], [ 5.083427, 45.72418 ] ] ] } },
{ "type": "Feature", "properties": { "icao": "LFLL", "label": "B", "taxiout": false, "35L": 8, "17R": 9 }, "geometry": { "type": "Polygon", "coordinates": [ [ [ 5.080727, 45.723888 ], [ 5.079889, 45.720313 ], [ 5.083551, 45.719958 ], [ 5.083417, 45.724174 ], [ 5.080727, 45.723888 ] ] ] } },
{ "type": "Feature", "properties": { "icao": "LFLL", "label": "C", "taxiout": false, "35L": 7, "17R": 11 }, "geometry": { "type": "Polygon", "coordinates": [ [ [ 5.079889, 45.720313 ], [ 5.078392539100445, 45.716667843546112 ], [ 5.0803, 45.716346 ], [ 5.082100667853441, 45.720098597733426 ], [ 5.079889, 45.720313 ] ] ] } },
{ "type": "Feature", "properties": { "icao": "LFLL", "label": "D", "taxiout": false, "35L": 9, "17R": 15 }, "geometry": { "type": "Polygon", "coordinates": [ [ [ 5.076802, 45.715234 ], [ 5.079593, 45.714726 ], [ 5.0803, 45.716346 ], [ 5.07739, 45.716837 ], [ 5.076802, 45.715234 ] ] ] } },
{ "type": "Feature", "properties": { "icao": "LFLL", "label": "E", "taxiout": false, "35L": 5, "17R": 12 }, "geometry": { "type": "Polygon", "coordinates": [ [ [ 5.084265, 45.716977 ], [ 5.084038, 45.719052 ], [ 5.082409, 45.719385 ], [ 5.081581, 45.717099 ], [ 5.084265, 45.716977 ] ] ] } },
{ "type": "Feature", "properties": { "icao": "LFLL", "label": "J / L", "taxiout": false, "35L": 8, "17R": 14 }, "geometry": { "type": "Polygon", "coordinates": [ [ [ 5.081369, 45.716824 ], [ 5.080055, 45.713756 ], [ 5.083397, 45.713069 ], [ 5.084618, 45.716194 ], [ 5.081369, 45.716824 ] ] ] } },
{ "type": "Feature", "properties": { "icao": "LFLL", "label": "M", "taxiout": false, "35L": 6, "17R": 16 }, "geometry": { "type": "Polygon", "coordinates": [ [ [ 5.085418, 45.705618 ], [ 5.085902, 45.710773 ], [ 5.084617, 45.710871 ], [ 5.084149, 45.705694 ], [ 5.085418, 45.705618 ] ] ] } }
]
}
